[{"OBJECT_NAME":"PALISADE","OBJECT_ID":"2019-069A","EPOCH":"2026-03-09T16:08:09.565152","MEAN_MOTION":13.11903827,"ECCENTRICITY":0.0008751,"INCLINATION":87.8869,"RA_OF_ASC_NODE":299.6164,"ARG_OF_PERICENTER":344.4129,"MEAN_ANOMALY":15.6728,"EPHEMERIS_TYPE":0,"CLASSIFICATION_TYPE":"U","NORAD_CAT_ID":44634,"ELEMENT_SET_NO":999,"REV_AT_EPOCH":30606,"BSTAR":-0.0010924646,"MEAN_MOTION_DOT":-3.77e-6,"MEAN_MOTION_DDOT":0},{"OBJECT_NAME":"ONEWEB-0129","OBJECT_ID":"2020-100T","EPOCH":"2026-03-09T19:49:05.035008","MEAN_MOTION":13.12442146,"ECCENTRICITY":0.00029436,"INCLINATION":87.9002,"RA_OF_ASC_NODE":10.3765,"ARG_OF_PERICENTER":75.1093,"MEAN_ANOMALY":285.0362,"EPHEMERIS_TYPE":0,"CLASSIFICATION_TYPE":"U","NORAD_CAT_ID":47275,"ELEMENT_SET_NO":999,"REV_AT_EPOCH":25164,"BSTAR":0.0011849656,"MEAN_MOTION_DOT":4.39e-6,"MEAN_MOTION_DDOT":0}]
